FLORIPASAT-1            
1 44885U 19093G   26060.45965001  .00007330  00000+0  55459-3 0  9998
2 44885  97.7926 154.0258 0012758  77.6935 282.5717 15.02564792336461
SHUNTIAN                
1 44886U 19093H   26060.50701323  .00004898  00000+0  45774-3 0  9995
2 44886  97.8025 149.2707 0012811  67.2911 292.9661 14.94542197336094
2019-093L               
1 44889U 19093L   26060.50645062  .00005408  00000+0  51334-3 0  9992
2 44889  97.7629 140.0652 0013144  55.2074 305.0381 14.93874176335729
ELEKTRO-L 3             
1 44903U 19095A   26060.39089932 -.00000114  00000+0  00000+0 0  9996
2 44903   0.0290 280.2746 0001735  40.7600  54.8375  1.00269982 22626
GONETS-M 14             
1 44905U 19096A   26060.50248876 -.00000034  00000+0 -31416-3 0  9997
2 44905  82.5271 151.4003 0013559  34.1932 326.0018 12.42866788280303
GONETS-M 15             
1 44906U 19096B   26060.53198521 -.00000035  00000+0 -32177-3 0  9998
2 44906  82.5291 151.8259 0015947  55.4447 304.8135 12.42866840280272
GONETS-M 16             
1 44907U 19096C   26060.56000176 -.00000055  00000+0 -46623-3 0  9993
2 44907  82.5236 150.8124 0012231  95.3429 264.9047 12.42887427280269
RS-44 & BREEZE-KM R/B   
1 44909U 19096E   26060.42942475  .00000029  00000+0  69635-4 0  9995
2 44909  82.5185  51.3048 0218255  36.5882 324.9903 12.79747340288566
JILIN-1 KUANFU 01       
1 45016U 20003A   26060.43093200  .00004777  00000+0  29768-3 0  9995
2 45016  97.5117 136.5050 0008764 318.5876  41.4688 15.09997461339064
XINGYUN-2 01            
1 45602U 20028A   26060.50278441  .00004686  00000+0  28218-3 0  9991
2 45602  97.4829  55.1030 0008047 204.5903 155.4945 15.11260214318574
XINGYUN-2 02            
1 45603U 20028B   26060.52951146  .00004553  00000+0  27597-3 0  9996
2 45603  97.5101  68.4370 0009233 285.7715  74.2496 15.11028839318577
HAIYANG-1D              
1 45721U 20036A   26060.53409630  .00000127  00000+0  60601-4 0  9990
2 45721  98.4452   4.6080 0003572 101.8661 258.2924 14.34197818299548
M2 PATHFINDER           
1 45727U 20037E   26060.49673691  .00003031  00000+0  22300-3 0  9992
2 45727  97.8151 250.5300 0012332 151.2959 208.8948 15.04111961309309
GAOFEN DUOMO (GFDM)     
1 45856U 20042A   26060.54778846  .00001560  00000+0  22896-3 0  9990
2 45856  97.7895 124.2868 0012573  62.8815 297.3676 14.76823356305120
ZIYUAN 3-03 (ZY 3-03)   
1 45939U 20051A   26060.51647962  .00009774  00000+0  43998-3 0  9994
2 45939  97.2957 131.6647 0005373 349.2292  10.8828 15.21266191310979
TYVAK-0172              
1 46267U 20059C   26060.45912965  .00259206  00000+0  24423-2 0  9996
2 46267  97.7260 302.0657 0004001  56.1081 304.0558 15.66251947301833
ION-MK01                
1 46274U 20061C   26060.21587223  .00169025  00000+0  73537-3 0  9996
2 46274  97.2006 138.6582 0001552 243.3256 116.7855 15.84343385306309
NEMO-HD                 
1 46277U 20061F   26060.51029615  .00013026  00000+0  30454-3 0  9998
2 46277  97.2068 123.6533 0002620  88.3925 271.7623 15.42280145305376
3CAT-5A                 
1 46292U 20061W   26060.16643752  .00018776  00000+0  43447-3 0  9993
2 46292  97.2557 123.3855 0003033 132.0113 228.1394 15.42511533304351
3CAT-5B                 
1 46293U 20061X   26060.17151617  .00020180  00000+0  44996-3 0  9991
2 46293  97.2563 124.1767 0003266 133.8349 226.3170 15.43605756304374
NAPA-1                  
1 46320U 20061BA  26060.52395940  .00054433  00000+0  77778-3 0  9992
2 46320  97.2611 132.1051 0001139 114.8153 245.3221 15.56080191304937
JILIN-1 GAOFEN 3B       
1 46454U 20065A   26058.81535857  .00141668  00000+0  89096-3 0  9999
2 46454  97.2403 115.9037 0003779 158.8139 201.3284 15.76294686303164
JILIN-1 GAOFEN 3E       
1 46457U 20065D   26060.45447987  .00043482  00000+0  69430-3 0  9996
2 46457  97.2452 111.3523 0014368 192.9915 167.0970 15.52956858302987
JILIN-1 GAOFEN 3F       
1 46458U 20065E   26060.46807662  .00041654  00000+0  70141-3 0  9998
2 46458  97.2412 109.0986 0015958 182.4308 177.6869 15.51452342302956
JILIN-1 GAOFEN 3G       
1 46459U 20065F   26060.49330514  .00060696  00000+0  83775-3 0  9993
2 46459  97.2488 114.6104 0014365  94.5417 265.7479 15.56871686303115
JILIN-1 GAOFEN 3H       
1 46460U 20065G   26060.43787494  .00050970  00000+0  74503-3 0  9995
2 46460  97.2433 111.3346 0008189  35.9141 324.2663 15.55439070303076
JILIN-1 GAOFEN 3J       
1 46462U 20065J   26060.48373911  .00138196  00000+0  10005-2 0  9990
2 46462  97.2426 117.0198 0004538 150.8170 209.3348 15.73026833303387
HAIYANG-2C              
1 46469U 20066A   26060.51886243 -.00000047  00000+0  31181-4 0  9993
2 46469  65.9974 123.3572 0012813 250.7438 109.2245 13.83373034274605
HJ-2A                   
1 46478U 20067A   26060.48377378  .00000860  00000+0  13054-3 0  9994
2 46478  97.8896 141.3773 0001990 232.3208 127.7821 14.76540971292367
HJ-2B                   
1 46479U 20067B   26060.52027502  .00001335  00000+0  19868-3 0  9998
2 46479  97.8954 142.3533 0001869  95.0926 265.0497 14.76530493292378
