OBJECT_NAME,OBJECT_ID,EPOCH,MEAN_MOTION,ECCENTRICITY,INCLINATION,RA_OF_ASC_NODE,ARG_OF_PERICENTER,MEAN_ANOMALY,EPHEMERIS_TYPE,CLASSIFICATION_TYPE,NORAD_CAT_ID,ELEMENT_SET_NO,REV_AT_EPOCH,BSTAR,MEAN_MOTION_DOT,MEAN_MOTION_DDOT
FLORIPASAT-1,2019-093G,2026-03-01T11:01:53.760864,15.02564792,.0012758,97.7926,154.0258,77.6935,282.5717,0,U,44885,999,33646,.55459E-3,.733E-4,0
SHUNTIAN,2019-093H,2026-03-01T12:10:05.943072,14.94542197,.0012811,97.8025,149.2707,67.2911,292.9661,0,U,44886,999,33609,.45774E-3,.4898E-4,0
2019-093L,2019-093L,2026-03-01T12:09:17.333568,14.93874176,.0013144,97.7629,140.0652,55.2074,305.0381,0,U,44889,999,33572,.51334E-3,.5408E-4,0
ELEKTRO-L 3,2019-095A,2026-03-01T09:22:53.701248,1.00269982,.0001735,0.0290,280.2746,40.7600,54.8375,0,U,44903,999,2262,0,-.114E-5,0
GONETS-M 14,2019-096A,2026-03-01T12:03:35.028864,12.42866788,.0013559,82.5271,151.4003,34.1932,326.0018,0,U,44905,999,28030,-.31416E-3,-.34E-6,0
GONETS-M 15,2019-096B,2026-03-01T12:46:03.522144,12.42866840,.0015947,82.5291,151.8259,55.4447,304.8135,0,U,44906,999,28027,-.32177E-3,-.35E-6,0
GONETS-M 16,2019-096C,2026-03-01T13:26:24.152064,12.42887427,.0012231,82.5236,150.8124,95.3429,264.9047,0,U,44907,999,28026,-.46623E-3,-.55E-6,0
RS-44 & BREEZE-KM R/B,2019-096E,2026-03-01T10:18:22.298400,12.79747340,.0218255,82.5185,51.3048,36.5882,324.9903,0,U,44909,999,28856,.69635E-4,.29E-6,0
JILIN-1 KUANFU 01,2020-003A,2026-03-01T10:20:32.524800,15.09997461,.0008764,97.5117,136.5050,318.5876,41.4688,0,U,45016,999,33906,.29768E-3,.4777E-4,0
XINGYUN-2 01,2020-028A,2026-03-01T12:04:00.573024,15.11260214,.0008047,97.4829,55.1030,204.5903,155.4945,0,U,45602,999,31857,.28218E-3,.4686E-4,0
XINGYUN-2 02,2020-028B,2026-03-01T12:42:29.790144,15.11028839,.0009233,97.5101,68.4370,285.7715,74.2496,0,U,45603,999,31857,.27597E-3,.4553E-4,0
HAIYANG-1D,2020-036A,2026-03-01T12:49:05.920320,14.34197818,.0003572,98.4452,4.6080,101.8661,258.2924,0,U,45721,999,29954,.60601E-4,.127E-5,0
M2 PATHFINDER,2020-037E,2026-03-01T11:55:18.069024,15.04111961,.0012332,97.8151,250.5300,151.2959,208.8948,0,U,45727,999,30930,.223E-3,.3031E-4,0
GAOFEN DUOMO (GFDM),2020-042A,2026-03-01T13:08:48.922944,14.76823356,.0012573,97.7895,124.2868,62.8815,297.3676,0,U,45856,999,30512,.22896E-3,.156E-4,0
ZIYUAN 3-03 (ZY 3-03),2020-051A,2026-03-01T12:23:43.839168,15.21266191,.0005373,97.2957,131.6647,349.2292,10.8828,0,U,45939,999,31097,.43998E-3,.9774E-4,0
TYVAK-0172,2020-059C,2026-03-01T11:01:08.801760,15.66251947,.0004001,97.7260,302.0657,56.1081,304.0558,0,U,46267,999,30183,.24423E-2,.259206E-2,0
ION-MK01,2020-061C,2026-03-01T05:10:51.360672,15.84343385,.0001552,97.2006,138.6582,243.3256,116.7855,0,U,46274,999,30630,.73537E-3,.169025E-2,0
NEMO-HD,2020-061F,2026-03-01T12:14:49.587360,15.42280145,.000262,97.2068,123.6533,88.3925,271.7623,0,U,46277,999,30537,.30454E-3,.13026E-3,0
3CAT-5A,2020-061W,2026-03-01T03:59:40.201728,15.42511533,.00030333,97.2557,123.3855,132.0113,228.1394,0,U,46292,999,30435,.43447247E-3,.18776E-3,0
3CAT-5B,2020-061X,2026-03-01T04:06:58.997088,15.43605756,.00032664,97.2563,124.1767,133.8349,226.3170,0,U,46293,999,30437,.44995881E-3,.2018E-3,0
NAPA-1,2020-061BA,2026-03-01T12:34:30.092160,15.56080191,.0001139,97.2611,132.1051,114.8153,245.3221,0,U,46320,999,30493,.77778E-3,.54433E-3,0
JILIN-1 GAOFEN 3B,2020-065A,2026-02-27T19:34:06.980448,15.76294686,.00037799,97.2403,115.9037,158.8139,201.3284,0,U,46454,999,30316,.89096133E-3,.141668E-2,0
JILIN-1 GAOFEN 3E,2020-065D,2026-03-01T10:54:27.060768,15.52956858,.0014368,97.2452,111.3523,192.9915,167.0970,0,U,46457,999,30298,.6943E-3,.43482E-3,0
JILIN-1 GAOFEN 3F,2020-065E,2026-03-01T11:14:01.819968,15.51452342,.0015958,97.2412,109.0986,182.4308,177.6869,0,U,46458,999,30295,.70141E-3,.41654E-3,0
JILIN-1 GAOFEN 3G,2020-065F,2026-03-01T11:50:21.564096,15.56871686,.0014365,97.2488,114.6104,94.5417,265.7479,0,U,46459,999,30311,.83775E-3,.60696E-3,0
JILIN-1 GAOFEN 3H,2020-065G,2026-03-01T10:30:32.394816,15.55439070,.0008189,97.2433,111.3346,35.9141,324.2663,0,U,46460,999,30307,.74503E-3,.5097E-3,0
JILIN-1 GAOFEN 3J,2020-065J,2026-03-01T11:36:35.059104,15.73026833,.0004538,97.2426,117.0198,150.8170,209.3348,0,U,46462,999,30338,.10005E-2,.138196E-2,0
HAIYANG-2C,2020-066A,2026-03-01T12:27:09.713952,13.83373034,.0012813,65.9974,123.3572,250.7438,109.2245,0,U,46469,999,27460,.31181E-4,-.47E-6,0
HJ-2A,2020-067A,2026-03-01T11:36:38.054592,14.76540971,.000199,97.8896,141.3773,232.3208,127.7821,0,U,46478,999,29236,.13054E-3,.86E-5,0
HJ-2B,2020-067B,2026-03-01T12:29:11.761728,14.76530493,.0001869,97.8954,142.3533,95.0926,265.0497,0,U,46479,999,29237,.19868E-3,.1335E-4,0
